STARLINK-2523_new
1 18306C 21036AG  21326.15598730 -.00003632  00000-0 -24341-3 0  3262
2 18306  53.0559 293.0431 0001880  62.5644  53.6667 15.06394848    18
STARLINK-2523_old
1 28306C 21036AG  21325.14980982  .00002919  00000-0  19558-3 0  3252
2 28306  53.0557 297.5599 0001933  63.4625 353.1762 15.06400908    17
